APRIZESAT 2             
1 28366U 04025A   26168.00639653  .00000124  00000+0  52074-4 0  9999
2 28366  98.1014 333.9969 0104334 250.3984 108.5918 14.38035751151611
SAUDICOMSAT 1           
1 28369U 04025D   26168.01624546  .00000307  00000+0  81416-4 0  9993
2 28369  98.5771 178.1430 0032665  26.1735 334.1104 14.55473706164107
SAUDICOMSAT 2           
1 28370U 04025E   26167.98709888  .00000194  00000+0  61970-4 0  9990
2 28370  98.6640 180.2277 0054169 260.1041  99.4034 14.49981155160071
APRIZESAT 1             
1 28372U 04025G   26168.01901638  .00000184  00000+0  57225-4 0  9991
2 28372  98.6303 178.7400 0045101 154.3557 205.9887 14.51776943161881
NANOSAT-1               
1 28493U 04049B   26167.96629080  .00000838  00000+0  11774-3 0  9996
2 28493  98.2276 304.6218 0002839 303.6432  56.4508 14.80159262155411
SAUDICOMSAT 7           
1 31119U 07012C   26167.90802486  .00000350  00000+0  71973-4 0  9992
2 31119  98.3777 142.0340 0055272 196.0747 163.8704 14.66110038 22392
SAUDICOMSAT 6           
1 31121U 07012E   26167.88503992  .00000484  00000+0  10225-3 0  9992
2 31121  98.4098 135.3957 0071073 328.7254  30.9728 14.62558113 20142
SAUDICOMSAT 5           
1 31124U 07012H   26168.15447927  .00000510  00000+0  96213-4 0  9993
2 31124  98.3489 143.0326 0048462 124.7986 235.7792 14.68156376 23595
SAUDICOMSAT 3           
1 31125U 07012J   26167.91100322  .00000705  00000+0  12308-3 0  9990
2 31125  98.3143 143.3325 0040252  54.0890 306.4041 14.70705411 24781
SAUDICOMSAT 4           
1 31127U 07012L   26167.88135729  .00000361  00000+0  76313-4 0  9992
2 31127  98.3983 140.4455 0062065 259.1992 100.2220 14.64512027 21243
APRIZESAT 4             
1 35684U 09041D   26167.91988693  .00000559  00000+0  73352-4 0  9997
2 35684  98.1413 243.2350 0042418 323.9431  35.8923 14.83879055911323
APRIZESAT 3             
1 35686U 09041F   26168.16584860  .00001518  00000+0  13515-3 0  9995
2 35686  98.2061 321.3885 0062792  67.8291 292.9576 14.96241355916371
S-NET D                 
1 43186U 18014G   26167.80212424  .00004256  00000+0  22071-3 0  9992
2 43186  97.5365  72.5955 0008988  31.7411 328.4362 15.16670775458709
S-NET B                 
1 43187U 18014H   26167.68161610  .00004473  00000+0  23196-3 0  9999
2 43187  97.5370  72.4624 0009465  26.9025 333.2696 15.16639326458684
S-NET A                 
1 43188U 18014J   26167.80100387  .00004229  00000+0  21925-3 0  9995
2 43188  97.5381  72.7895 0009365  27.3118 332.8605 15.16678733458700
S-NET C                 
1 43189U 18014K   26168.01537638  .00004523  00000+0  23450-3 0  9995
2 43189  97.5398  73.0773 0010475  18.2964 341.8644 15.16634136457284
SALSAT                  
1 46495U 20068K   26168.01469823  .00006653  00000+0  23324-3 0  9996
2 46495  97.8847 171.0688 0008038 308.8582  51.1939 15.29798435315333
OOV-CUBE (TUBSAT-30)    
1 60240U 24128F   26167.65623862  .00001551  00000+0  12883-3 0  9995
2 60240  61.9941 227.4248 0044650 133.6062 226.8748 15.02772513106033
LPNTSAT-001 (IOD-1)     
1 68408U 26065A   26167.94497712  .00002414  00000+0  11979-3 0  9990
2 68408  97.4015  48.4600 0016688  11.6668 348.4950 15.18537232 12220
